P/2017 G2 (PANSTARRS),e,47.9530,79.7988,105.6147,8.081147,0.0429037,0.64872728,41.1288,01/27.0/2020,2000,g 13.0,4.0
# From MPC109144
C/2017 G3 (PANSTARRS),e,159.0587,279.4802,73.1499,305.3628,0.0001847,0.99151334,0.0000,04/15.3900/2017,2000,g 14.0,4.0
# From MPC115882
C/2017 K1 (PANSTARRS),h,03/16.7973/2018,154.0086,225.6480,4.3532,1.001191,7.288488,2000,7.0,4.0
# From MPC119995
C/2017 K2 (PANSTARRS),h,12/20.1038/2022,87.5421,88.2682,236.1437,1.000398,1.800691,2000,1.5,4.0
# From MPC106346
P/2017 K3 (Gasparovic),e,4.2753,354.3041,253.4127,5.579412,0.0747862,0.58094868,72.5636,01/27.0/2020,2000,g 14.5,4.0
# From MPC114598
C/2017 K4 (ATLAS),e,16.6796,298.8728,15.1864,28.39353,0.0065144,0.90669704,4.8774,01/27.0/2020,2000,g 10.0,4.0
# From MPC119995
C/2017 K5 (PANSTARRS),h,03/23.8117/2020,82.2641,102.3734,171.8124,1.006057,7.678735,2000,5.0,4.0
# From MPC114599
C/2017 K6 (Jacques),e,57.2550,85.0538,303.7818,1064,0.0000284,0.99811948,0.0000,01/03.1812/2018,2000,g 11.0,4.0
# From MPC110083
C/2017 M3 (PANSTARRS),e,77.5260,7.0034,110.3620,168.1880,0.0004519,0.97230241,0.0000,04/28.2432/2017,2000,g 10.5,4.0
# From MPC118093
C/2017 M4 (ATLAS),h,01/17.8745/2019,105.6440,65.8638,167.5595,1.001201,3.251415,2000,6.0,4.0
# From MPC118841
C/2017 M5 (TOTAS),h,06/03.6658/2018,15.8826,216.2727,92.7139,1.004926,5.991128,2000,6.5,4.0
# From MPC114599
C/2017 O1 (ASASSN),e,39.8696,25.7852,20.8649,361.7811,0.0001432,0.99586251,0.0000,10/14.7176/2017,2000,g 11.0,4.0
# From MPC114599
P/2017 P1 (PANSTARRS),e,7.6995,221.4009,122.1699,7.886039,0.0445057,0.31016732,26.1848,01/27.0/2020,2000,g 10.0,4.0
# From MPC114599
C/2017 P2 (PANSTARRS),e,50.0637,165.5170,132.3005,1829,0.0000126,0.99865362,0.0000,12/06.6723/2017,2000,g 10.0,4.0
# From MPC114599
P/2017 R1 (PANSTARRS),e,2.5734,143.6253,178.5046,4.134930,0.1172200,0.19549346,119.8944,01/27.0/2020,2000,g 13.5,4.0
# From MPC108595
C/2017 S2 (PANSTARRS),e,12.6811,62.4197,305.9359,20.49780,0.0106205,0.82377170,9.3525,01/27.0/2020,2000,g 13.0,4.0
# From MPC114599
C/2017 S3 (PANSTARRS),h,08/15.9596/2018,99.0812,171.0990,255.8386,1.000049,0.208434,2000,11.0,4.0
# From MPC114599
P/2017 S5 (ATLAS),e,11.8503,252.3876,99.8356,3.169345,0.1746827,0.31368571,159.4608,01/27.0/2020,2000,g 14.0,4.0
# From MPC109591
C/2017 S6 (Catalina),h,02/26.7462/2018,152.8680,131.0521,134.7963,1.000784,1.541701,2000,12.5,4.0
# From MPC114599
C/2017 S7 (Lemmon),h,05/26.2402/2017,124.2334,262.7934,187.6445,1.001497,7.610312,2000,7.0,4.0
# From MPC114599
P/2017 S8 (PANSTARRS),e,29.8291,191.7506,254.6907,2.777928,0.2128740,0.39286201,155.1083,01/27.0/2020,2000,g 16.0,4.0
# From MPC107050
P/2017 S9 (PANSTARRS),e,14.1431,146.2160,237.7469,3.154365,0.1759285,0.30483196,161.4579,01/27.0/2020,2000,g 17.0,4.0
# From MPC114600
C/2017 T1 (Heinze),h,02/21.5279/2018,96.8374,102.3183,96.9008,1.000031,0.581001,2000,14.5,4.0
# From MPC119996
C/2017 T2 (PANSTARRS),e,57.2309,64.3784,92.9937,4844,0.0000029,0.99966655,0.0000,05/04.9506/2020,2000,g  5.0,4.0
# From MPC114600
C/2017 T3 (ATLAS),e,88.0298,230.0671,246.8360,1545,0.0000162,0.99946635,0.0000,07/19.1038/2018,2000,g 10.0,4.0
# From MPC115882
P/2017 TW13 (Lemmon),e,44.8455,322.2824,120.0673,7.151532,0.0515354,0.70941355,30.1544,01/27.0/2020,2000,g 15.0,2.0
# From MPC114600
C/2017 U2 (Fuls),e,95.3967,149.7136,147.7590,5251,0.0000026,0.99872349,0.0000,08/28.2932/2017,2000,g  9.0,4.0
# From MPC114600
P/2017 U3 (PANSTARRS),e,15.9113,165.1119,297.2131,4.932848,0.0899617,0.09904739,25.4157,01/27.0/2020,2000,g 11.0,4.0
# From MPC114600
C/2017 U4 (PANSTARRS),h,09/24.4317/2018,158.2234,245.9506,159.0953,1.003612,7.723173,2000,7.0,4.0
# From MPC114600
C/2017 U5 (PANSTARRS),e,18.9649,163.0887,262.0842,16.88376,0.0142069,0.74387881,10.9318,01/27.0/2020,2000,g 12.0,4.0
# From MPC118841
A/2017 U7,h,09/11.8420/2019,142.6350,276.2326,326.0789,1.001803,6.417540,2000,8.3,2.0
# From MPC114600
C/2017 W2 (Leonard),e,98.1981,312.8311,169.1220,13.69034,0.0194573,0.71104121,15.8826,01/27.0/2020,2000,g 11.0,4.0
# From MPC114601
P/2017 W3 (Gibbs),e,18.2033,210.5079,327.3548,7.837720,0.0449179,0.50882267,31.2991,01/27.0/2020,2000,g 10.5,4.0
# From MPC115883
C/2017 X1 (PANSTARRS),e,31.3072,251.1287,283.2530,31.48882,0.0055779,0.85181487,3.2939,01/27.0/2020,2000,g 10.0,4.0
# From MPC117069
C/2017 Y1 (PANSTARRS),e,55.2619,307.5232,134.3808,2094,0.0000103,0.99822555,0.0000,08/31.1955/2017,2000,g 11.5,4.0
# From MPC118841
C/2017 Y2 (PANSTARRS),h,11/04.4586/2020,128.4306,65.9711,147.8309,1.000300,4.632469,2000,15.0,4.0
# From MPC111770
P/2017 Y3 (Leonard),e,27.5731,153.8638,67.5643,9.852581,0.0318698,0.87040875,22.7835,01/27.0/2020,2000,g 16.5,4.0
# From MPC114601
C/2018 A1 (PANSTARRS),e,53.5857,336.6312,96.3337,25.14083,0.0078187,0.90382232,6.4794,01/27.0/2020,2000,g 12.5,4.0
# From MPC119996
C/2018 A3 (ATLAS),e,139.5564,194.2905,86.4188,504.4913,0.0000870,0.99350562,0.0000,01/12.7995/2019,2000,g  8.5,4.0
# From MPC114601
C/2018 A4 (PANSTARRS),e,3.1481,97.6350,356.0981,12.22992,0.0230446,0.80358419,14.2500,01/27.0/2020,2000,g 14.0,4.0
# From MPC109147
P/2018 A5 (PANSTARRS),e,23.5779,87.8307,359.6375,5.639804,0.0735882,0.52230779,62.9614,01/27.0/2020,2000,g 15.0,4.0
# From MPC119996
C/2018 A6 (Gibbs),e,76.9553,340.3856,264.5390,15.35105,0.0163869,0.80340837,3.2232,01/27.0/2020,2000,g  9.0,4.0
# From MPC118841
C/2018 B1 (Lemmon),h,03/29.9921/2018,162.4213,133.1869,68.3218,1.002035,5.115513,2000,9.0,4.0
# From MPC114601
P/2018 C1 (Lemmon-Read),e,5.1402,270.3865,235.2422,5.637254,0.0736381,0.53593682,51.4212,01/27.0/2020,2000,g 13.5,4.0
# From MPC114601
C/2018 C2 (Lemmon),h,06/02.0457/2018,34.4584,91.1393,134.1099,1.001095,1.956590,2000,13.0,4.0
# From MPEC 2020-AA5
C/2018 DO4 (Lemmon),e,160.4742,251.1321,175.9652,25.81592,0.0075140,0.90680498,1.2144,01/27.0/2020,2000,g 11.0,4.0
# From MPC114602
C/2018 E1 (ATLAS),e,72.5001,146.8475,299.4492,54.10994,0.0024762,0.95001447,1.6089,01/27.0/2020,2000,g 10.5,4.0
# From MPC114602
C/2018 E2 (Barros),e,97.7351,67.2010,277.4838,3336,0.0000051,0.99882464,0.0000,12/23.8869/2017,2000,g 10.5,4.0
# From MPC114602
C/2018 EN4 (NEOWISE),e,81.5815,136.1562,35.0120,18.33398,0.0125551,0.92098993,7.5127,01/27.0/2020,2000,g 15.0,4.0
# From MPC114602
C/2018 EF9 (Lemmon),e,84.6700,172.5773,72.6212,604.8433,0.0000663,0.99742586,0.0000,05/23.0689/2018,2000,g 18.0,2.0
# From MPC115883
C/2018 F1 (Grauer),e,46.0743,177.2772,71.6380,304.8020,0.0001852,0.99017933,0.0000,12/14.0402/2018,2000,g 11.5,4.0
# From MPC110084
C/2018 F3 (Johnson),p,08/15.2314/2017,105.5348,293.0113,2.483172,173.0311,2000,13.0,4.0
# From MPC119996
C/2018 F4 (PANSTARRS),h,12/04.1041/2019,78.0984,26.5077,263.2143,1.001473,3.439845,2000,11.9,2.0
# From MPC114602
P/2018 H2 (PANSTARRS),e,7.3883,68.4410,120.0471,4.397728,0.1068714,0.53985118,78.4420,01/27.0/2020,2000,g 16.6,2.0
# From MPC114602
C/2018 K1 (Weiland),e,164.1960,260.0134,324.9929,29.83714,0.0060474,0.93701189,3.9927,01/27.0/2020,2000,g 14.9,4.0
# From MPC118094
C/2018 KJ3 (Lemmon),e,136.7093,91.5944,217.6281,743.2803,0.0000486,0.99511803,0.0000,09/09.5126/2019,2000,g 12.2,2.0
# From MPC114602
P/2018 L1 (PANSTARRS),e,10.5947,268.6269,17.9290,3.648906,0.1414035,0.48304711,62.2759,01/27.0/2020,2000,g 15.0,4.0
# From MPC118841
C/2018 L2 (ATLAS),e,67.4174,243.0214,56.2498,251.1622,0.0002476,0.99318348,0.0000,12/02.6224/2018,2000,g 10.0,4.0
# From MPC114603
P/2018 L4 (PANSTARRS),e,26.6233,145.1762,140.4932,4.937356,0.0898385,0.66032468,48.8814,01/27.0/2020,2000,g 17.5,4.0
# From MPC119996
P/2018 L5 (Leonard),e,2.2088,219.1528,93.7221,3.626787,0.1426990,0.36475617,90.2172,01/27.0/2020,2000,g 14.5,4.0
# From MPC117070
C/2018 M1 (Catalina),e,37.2693,339.4383,14.1429,21.29817,0.0100275,0.93882296,5.6747,01/27.0/2020,2000,g 15.5,4.0
# From MPC112393
C/2018 N1 (NEOWISE),e,159.4447,292.4447,354.5722,332.1312,0.0001628,0.99606207,0.0000,08/01.9284/2018,2000,g 15.5,4.0
# From MPC119996
C/2018 N2 (ASASSN),h,11/10.9646/2019,77.5304,25.2582,24.3970,1.000167,3.124644,2000,6.0,4.0
# From MPC114603
C/2018 O1 (ATLAS),e,154.0427,87.6246,162.5147,27.77942,0.0067316,0.94389022,3.4565,01/27.0/2020,2000,g 17.0,4.0
# From MPC114603
P/2018 P3 (PANSTARRS),e,8.9084,59.2038,305.8710,3.007025,0.1890160,0.41608592,89.6896,01/27.0/2020,2000,g 14.5,4.0
# From MPC114603
P/2018 P4 (PANSTARRS),e,23.1069,353.0966,8.1479,6.665615,0.0572722,0.44998094,25.5140,01/27.0/2020,2000,g 12.0,4.0
# From MPC118094
C/2018 P5 (PANSTARRS),e,7.2557,216.2455,131.6615,12.76870,0.0216015,0.64161252,7.2258,01/27.0/2020,2000,g 11.0,4.0
# From MPC118841
C/2018 R3 (Lemmon),e,69.7187,324.6261,112.8717,1923,0.0000117,0.99932908,0.0000,06/07.1957/2019,2000,g  9.5,4.0
# From MPC112393
C/2018 R4 (Fuls),e,11.6833,298.4410,345.2130,315.3724,0.0001760,0.99457506,0.0000,03/03.6786/2018,2000,g 14.0,4.0
# From MPC114603
C/2018 R5 (Lemmon),e,103.7502,171.1393,178.0279,22.81757,0.0090427,0.84127887,3.4540,01/27.0/2020,2000,g 11.5,4.0
# From MPC119996
C/2018 U1 (Lemmon),h,11/02.7629/2021,108.3020,75.4763,180.4021,1.000391,4.994914,2000,5.0,4.0
# From MPC114604
C/2018 V1 (Machholz-Fujikawa-Iwamoto),h,12/03.5235/2018,144.0503,128.8690,88.8442,1.000471,0.386013,2000,12.0,4.0
# From MPC115884
C/2018 V2 (ATLAS),e,159.1143,356.8042,318.7030,25.45857,0.0076728,0.90274910,3.2686,01/27.0/2020,2000,g 15.0,4.0
# From MPC114604
P/2018 VN2 (Leonard),e,18.2470,226.5432,138.7290,4.065301,0.1202445,0.47809938,72.2259,01/27.0/2020,2000,g 15.0,4.0
# From MPC117070
A/2018 V3,e,164.9777,308.6588,3.4964,121.5154,0.0007358,0.98897733,0.0000,09/08.6923/2019,2000,g 15.7,2.0
# From MPC114604
C/2018 V4 (Africano),e,69.0043,78.3800,359.9801,211.8058,0.0003197,0.98489785,0.0000,03/01.5739/2019,2000,g 12.5,4.0
# From MPC114604
P/2018 V5 (Trujillo-Sheppard),e,10.5816,171.3022,260.7533,8.956552,0.0367699,0.47449497,17.6782,01/27.0/2020,2000,g 12.5,4.0
# From MPC115884
C/2018 W1 (Catalina),e,83.2693,233.5917,251.2588,21.81395,0.0096739,0.93763677,2.5166,01/27.0/2020,2000,g 15.7,2.0
# From MPC119996
